start=new Date('2022-07-28T00:00:00.000Z').valueOf();
sats=[{"APOAPSIS":"541.160","INCLINATION":"53.2162","FILE":"3523312","PERIAPSIS":"538.206","CLASSIFICATION_TYPE":"U","COUNTRY_CODE":"US","OBJECT_TYPE":"PAYLOAD","OBJECT_NAME":"STARLINK-3623","CENTER_NAME":"EARTH","LAUNCH_DATE":"2022-02-25","TLE_LINE2":"2 51772  53.2162 147.9188 0002135  54.6397  86.1514 15.08860417 24726","ECCENTRICITY":"0.00021350","MEAN_MOTION_DDOT":"0.0000000000000","TIME_SYSTEM":"UTC","MEAN_ANOMALY":"86.1514","EPHEMERIS_TYPE":"0","TLE_LINE1":"1 51772U 22017E   22209.00001157 -.00025267  00000-0 -15741-2 0  9997","PERIOD":"95.436","RCS_SIZE":"LARGE","ARG_OF_PERICENTER":"54.6397","MEAN_MOTION":"15.08860417","REF_FRAME":"TEME","ELEMENT_SET_NO":"999","SEMIMAJOR_AXIS":"6917.818","RA_OF_ASC_NODE":"147.9188","GP_ID":"208976944","NORAD_CAT_ID":"51772","MEAN_MOTION_DOT":"-0.00025267","EPOCH":"2022-07-28T00:00:00.999648","OBJECT_ID":"2022-017E","SITE":"AFWTR","DECAY_DATE":null,"BSTAR":"-0.00157410000000","MEAN_ELEMENT_THEORY":"SGP4","REV_AT_EPOCH":"2472"},{"INCLINATION":"53.2160","APOAPSIS":"540.958","FILE":"3523312","COUNTRY_CODE":"US","OBJECT_TYPE":"PAYLOAD","CLASSIFICATION_TYPE":"U","PERIAPSIS":"538.457","OBJECT_NAME":"STARLINK-3624","LAUNCH_DATE":"2022-02-25","CENTER_NAME":"EARTH","TIME_SYSTEM":"UTC","MEAN_MOTION_DDOT":"0.0000000000000","ECCENTRICITY":"0.00018080","TLE_LINE2":"2 51773  53.2160 147.9169 0001808  54.7788  46.0081 15.08852450 24682","EPHEMERIS_TYPE":"0","MEAN_ANOMALY":"46.0081","TLE_LINE1":"1 51773U 22017F   22209.00001157 -.00028022  00000-0 -17488-2 0  9990","PERIOD":"95.437","RCS_SIZE":"LARGE","ARG_OF_PERICENTER":"54.7788","MEAN_MOTION":"15.08852450","RA_OF_ASC_NODE":"147.9169","SEMIMAJOR_AXIS":"6917.842","REF_FRAME":"TEME","ELEMENT_SET_NO":"999","NORAD_CAT_ID":"51773","GP_ID":"208976949","SITE":"AFWTR","MEAN_MOTION_DOT":"-0.00028022","EPOCH":"2022-07-28T00:00:00.999648","OBJECT_ID":"2022-017F","REV_AT_EPOCH":"2468","BSTAR":"-0.00174880000000","MEAN_ELEMENT_THEORY":"SGP4","DECAY_DATE":null},{"EPHEMERIS_TYPE":"0","MEAN_ANOMALY":"123.7870","MEAN_MOTION_DDOT":"0.0000000000000","TIME_SYSTEM":"UTC","TLE_LINE2":"2 51774  53.2155 147.9187 0001826  56.9867 123.7870 15.08860894 24690","ECCENTRICITY":"0.00018260","LAUNCH_DATE":"2022-02-25","CENTER_NAME":"EARTH","OBJECT_NAME":"STARLINK-3629","PERIAPSIS":"538.418","OBJECT_TYPE":"PAYLOAD","COUNTRY_CODE":"US","CLASSIFICATION_TYPE":"U","FILE":"3523312","INCLINATION":"53.2155","APOAPSIS":"540.945","BSTAR":"-0.00147070000000","MEAN_ELEMENT_THEORY":"SGP4","REV_AT_EPOCH":"2469","DECAY_DATE":null,"SITE":"AFWTR","MEAN_MOTION_DOT":"-0.00023632","EPOCH":"2022-07-28T00:00:00.999648","OBJECT_ID":"2022-017G","NORAD_CAT_ID":"51774","GP_ID":"208976950","SEMIMAJOR_AXIS":"6917.817","RA_OF_ASC_NODE":"147.9187","REF_FRAME":"TEME","ELEMENT_SET_NO":"999","RCS_SIZE":"LARGE","MEAN_MOTION":"15.08860894","ARG_OF_PERICENTER":"56.9867","PERIOD":"95.436","TLE_LINE1":"1 51774U 22017G   22209.00001157 -.00023632  00000-0 -14707-2 0  9994"},{"INCLINATION":"53.2171","APOAPSIS":"541.070","FILE":"3523315","COUNTRY_CODE":"US","CLASSIFICATION_TYPE":"U","OBJECT_TYPE":"PAYLOAD","PERIAPSIS":"538.395","OBJECT_NAME":"STARLINK-3620","LAUNCH_DATE":"2022-02-25","CENTER_NAME":"EARTH","TIME_SYSTEM":"UTC","MEAN_MOTION_DDOT":"0.0000000000000","TLE_LINE2":"2 51775  53.2171 147.9184 0001934  53.3632  67.4212 15.08844215 24678","ECCENTRICITY":"0.00019340","EPHEMERIS_TYPE":"0","MEAN_ANOMALY":"67.4212","TLE_LINE1":"1 51775U 22017H   22209.00001157 -.00026797  00000-0 -16716-2 0  9992","PERIOD":"95.437","ARG_OF_PERICENTER":"53.3632","RCS_SIZE":"LARGE","MEAN_MOTION":"15.08844215","RA_OF_ASC_NODE":"147.9184","SEMIMAJOR_AXIS":"6917.868","ELEMENT_SET_NO":"999","REF_FRAME":"TEME","NORAD_CAT_ID":"51775","GP_ID":"208976964","SITE":"AFWTR","MEAN_MOTION_DOT":"-0.00026797","EPOCH":"2022-07-28T00:00:00.999648","OBJECT_ID":"2022-017H","REV_AT_EPOCH":"2467","BSTAR":"-0.00167160000000","MEAN_ELEMENT_THEORY":"SGP4","DECAY_DATE":null},{"EPOCH":"2022-07-28T00:00:00.999648","MEAN_MOTION_DOT":"-0.00067976","OBJECT_ID":"2022-017J","SITE":"AFWTR","DECAY_DATE":null,"REV_AT_EPOCH":"2468","MEAN_ELEMENT_THEORY":"SGP4","BSTAR":"-0.00428920000000","ELEMENT_SET_NO":"999","REF_FRAME":"TEME","RA_OF_ASC_NODE":"147.9196","SEMIMAJOR_AXIS":"6917.771","NORAD_CAT_ID":"51776","GP_ID":"208977035","MEAN_MOTION":"15.08875946","RCS_SIZE":"LARGE","ARG_OF_PERICENTER":"62.7243","TLE_LINE1":"1 51776U 22017J   22209.00001157 -.00067976  00000-0 -42892-2 0  9991","PERIOD":"95.435","TLE_LINE2":"2 51776  53.2161 147.9196 0002110  62.7243 138.0332 15.08875946 24684","ECCENTRICITY":"0.00021100","TIME_SYSTEM":"UTC","MEAN_MOTION_DDOT":"0.0000000000000","MEAN_ANOMALY":"138.0332","EPHEMERIS_TYPE":"0","CENTER_NAME":"EARTH","LAUNCH_DATE":"2022-02-25","OBJECT_TYPE":"PAYLOAD","COUNTRY_CODE":"US","CLASSIFICATION_TYPE":"U","PERIAPSIS":"538.176","OBJECT_NAME":"STARLINK-3608","APOAPSIS":"541.095","INCLINATION":"53.2161","FILE":"3523315"},{"LAUNCH_DATE":"2022-02-25","CENTER_NAME":"EARTH","EPHEMERIS_TYPE":"0","MEAN_ANOMALY":"104.9339","MEAN_MOTION_DDOT":"0.0000000000000","TIME_SYSTEM":"UTC","ECCENTRICITY":"0.00020250","TLE_LINE2":"2 51777  53.2166 147.9192 0002025  55.8181 104.9339 15.08878753 24683","FILE":"3523315","INCLINATION":"53.2166","APOAPSIS":"541.028","OBJECT_NAME":"STARLINK-3625","PERIAPSIS":"538.226","COUNTRY_CODE":"US","OBJECT_TYPE":"PAYLOAD","CLASSIFICATION_TYPE":"U","NORAD_CAT_ID":"51777","GP_ID":"208976960","SEMIMAJOR_AXIS":"6917.762","RA_OF_ASC_NODE":"147.9192","ELEMENT_SET_NO":"999","REF_FRAME":"TEME","BSTAR":"-0.00437340000000","MEAN_ELEMENT_THEORY":"SGP4","REV_AT_EPOCH":"2468","DECAY_DATE":null,"SITE":"AFWTR","MEAN_MOTION_DOT":"-0.00069297","OBJECT_ID":"2022-017K","EPOCH":"2022-07-28T00:00:00.999648","PERIOD":"95.435","TLE_LINE1":"1 51777U 22017K   22209.00001157 -.00069297  00000-0 -43734-2 0  9996","RCS_SIZE":"LARGE","MEAN_MOTION":"15.08878753","ARG_OF_PERICENTER":"55.8181"},{"ECCENTRICITY":"0.00019060","TLE_LINE2":"2 51778  53.2152 137.9230 0001906  62.7200  27.8353 15.08881223 24828","MEAN_MOTION_DDOT":"0.0000000000000","TIME_SYSTEM":"UTC","MEAN_ANOMALY":"27.8353","EPHEMERIS_TYPE":"0","CENTER_NAME":"EARTH","LAUNCH_DATE":"2022-02-25","PERIAPSIS":"538.301","COUNTRY_CODE":"US","CLASSIFICATION_TYPE":"U","OBJECT_TYPE":"PAYLOAD","OBJECT_NAME":"STARLINK-3615","APOAPSIS":"540.938","INCLINATION":"53.2152","FILE":"3523315","MEAN_MOTION_DOT":"-0.00070322","EPOCH":"2022-07-28T00:00:00.999648","OBJECT_ID":"2022-017L","SITE":"AFWTR","DECAY_DATE":null,"BSTAR":"-0.00443870000000","MEAN_ELEMENT_THEORY":"SGP4","REV_AT_EPOCH":"2482","REF_FRAME":"TEME","ELEMENT_SET_NO":"999","SEMIMAJOR_AXIS":"6917.754","RA_OF_ASC_NODE":"137.9230","GP_ID":"208977034","NORAD_CAT_ID":"51778","ARG_OF_PERICENTER":"62.7200","RCS_SIZE":"LARGE","MEAN_MOTION":"15.08881223","TLE_LINE1":"1 51778U 22017L   22209.00001157 -.00070322  00000-0 -44387-2 0  9993","PERIOD":"95.435"},{"OBJECT_NAME":"STARLINK-3611","OBJECT_TYPE":"PAYLOAD","COUNTRY_CODE":"US","CLASSIFICATION_TYPE":"U","PERIAPSIS":"538.210","FILE":"3523315","APOAPSIS":"541.255","INCLINATION":"53.2173","MEAN_ANOMALY":"167.1506","EPHEMERIS_TYPE":"0","ECCENTRICITY":"0.00022010","TLE_LINE2":"2 51779  53.2173 147.9142 0002201  53.6407 167.1506 15.08844234 24685","TIME_SYSTEM":"UTC","MEAN_MOTION_DDOT":"0.0000000000000","CENTER_NAME":"EARTH","LAUNCH_DATE":"2022-02-25","ARG_OF_PERICENTER":"53.6407","RCS_SIZE":"LARGE","MEAN_MOTION":"15.08844234","PERIOD":"95.437","TLE_LINE1":"1 51779U 22017M   22209.00001157 -.00024784  00000-0 -15442-2 0  9995","DECAY_DATE":null,"REV_AT_EPOCH":"2468","MEAN_ELEMENT_THEORY":"SGP4","BSTAR":"-0.00154420000000","EPOCH":"2022-07-28T00:00:00.999648","MEAN_MOTION_DOT":"-0.00024784","OBJECT_ID":"2022-017M","SITE":"AFWTR","NORAD_CAT_ID":"51779","GP_ID":"208977033","ELEMENT_SET_NO":"999","REF_FRAME":"TEME","RA_OF_ASC_NODE":"147.9142","SEMIMAJOR_AXIS":"6917.867"},{"RA_OF_ASC_NODE":"148.3004","SEMIMAJOR_AXIS":"6917.846","REF_FRAME":"TEME","ELEMENT_SET_NO":"999","GP_ID":"209001240","NORAD_CAT_ID":"51780","SITE":"AFWTR","MEAN_MOTION_DOT":"-0.00011521","EPOCH":"2022-07-27T22:00:00.999936","OBJECT_ID":"2022-017N","REV_AT_EPOCH":"130","BSTAR":"-0.00070663000000","MEAN_ELEMENT_THEORY":"SGP4","DECAY_DATE":null,"TLE_LINE1":"1 51780U 22017N   22208.91667824 -.00011521  00000-0 -70663-3 0  9997","PERIOD":"95.437","ARG_OF_PERICENTER":"57.4708","RCS_SIZE":"LARGE","MEAN_MOTION":"15.08851341","LAUNCH_DATE":"2022-02-25","CENTER_NAME":"EARTH","TIME_SYSTEM":"UTC","MEAN_MOTION_DDOT":"0.0000000000000","ECCENTRICITY":"0.00028590","TLE_LINE2":"2 51780  53.2176 148.3004 0002859  57.4708 125.2289 15.08851341  1301","EPHEMERIS_TYPE":"0","MEAN_ANOMALY":"125.2289","INCLINATION":"53.2176","APOAPSIS":"541.689","FILE":"3523323","COUNTRY_CODE":"US","CLASSIFICATION_TYPE":"U","OBJECT_TYPE":"PAYLOAD","PERIAPSIS":"537.733","OBJECT_NAME":"STARLINK-3617"},{"COUNTRY_CODE":"US","OBJECT_TYPE":"PAYLOAD","CLASSIFICATION_TYPE":"U","PERIAPSIS":"538.164","OBJECT_NAME":"STARLINK-3580","INCLINATION":"53.2164","APOAPSIS":"541.137","FILE":"3523315","TIME_SYSTEM":"UTC","MEAN_MOTION_DDOT":"0.0000000000000","TLE_LINE2":"2 51781  53.2164 147.9215 0002149  54.8779 185.9139 15.08871063 24696","ECCENTRICITY":"0.00021490","EPHEMERIS_TYPE":"0","MEAN_ANOMALY":"185.9139","LAUNCH_DATE":"2022-02-25","CENTER_NAME":"EARTH","MEAN_MOTION":"15.08871063","RCS_SIZE":"LARGE","ARG_OF_PERICENTER":"54.8779","TLE_LINE1":"1 51781U 22017P   22209.00001157 -.00067059  00000-0 -42311-2 0  9995","PERIOD":"95.436","SITE":"AFWTR","EPOCH":"2022-07-28T00:00:00.999648","MEAN_MOTION_DOT":"-0.00067059","OBJECT_ID":"2022-017P","REV_AT_EPOCH":"2469","BSTAR":"-0.00423110000000","MEAN_ELEMENT_THEORY":"SGP4","DECAY_DATE":null,"RA_OF_ASC_NODE":"147.9215","SEMIMAJOR_AXIS":"6917.785","REF_FRAME":"TEME","ELEMENT_SET_NO":"999","NORAD_CAT_ID":"51781","GP_ID":"208976955"}];
